Unnamed: 0,NORAD_CAT_ID,OBJECT_NAME,EPOCH,MEAN_MOTION,ECCENTRICITY,INCLINATION,RA_OF_ASC_NODE,ARG_OF_PERICENTER,MEAN_ANOMALY,BSTAR,MEAN_MOTION_DOT,MEAN_MOTION_DDOT,TLE_LINE1,TLE_LINE2,SEMIMAJOR_AXIS,PERIOD,APOGEE,PERIGEE,alltitude
1188960,48481,STARLINK-2706,2021-06-30 22:00:00.999936,15.06380173,0.0001521,53.0495,330.574,67.9464,102.2139,0.0019665,0.00029115,0,1 48481U 21040BF  21181.91667824  .00029115  00000-0  19665-2 0  9995,2 48481  53.0495 330.5740 0001521  67.9464 102.2139 15.06380173  3634,6925.409,95.593,548.328,546.221,547.6946867171646
1188316,48481,STARLINK-2706,2021-06-30 20:00:01.224000,15.06370069,0.0001535,53.0497,330.9483,69.2956,8.702,0.0027985,0.00041615,0,1 48481U 21040BF  21181.83334491  .00041615  00000-0  27985-2 0  9990,2 48481  53.0497 330.9483 0001535  69.2956   8.7020 15.06370069  9469,6925.44,95.594,548.368,546.242,552.4298996059903
1184209,48481,STARLINK-2706,2021-06-29 16:00:01.999584,15.06392036,0.0001507,53.0501,336.1852,74.6787,153.0479,-0.0014058,-0.00021155,0,1 48481U 21040BF  21180.66668981 -.00021155  00000-0 -14058-2 0  9990,2 48481  53.0501 336.1852 0001507  74.6787 153.0479 15.06392036  9284,6925.373,95.593,548.282,546.194,559.8575536152027
1184026,48481,STARLINK-2706,2021-06-29 16:00:01.999584,15.06392036,0.0001507,53.0501,336.1852,74.6787,153.0479,-0.0014058,-0.00021155,0,1 48481U 21040BF  21180.66668981 -.00021155  00000-0 -14058-2 0  9990,2 48481  53.0501 336.1852 0001507  74.6787 153.0479 15.06392036  3716,6925.373,95.593,548.282,546.194,559.8575536152027
1183494,48481,STARLINK-2706,2021-06-29 12:00:00.999648,15.06394143,0.000146,53.0498,336.9326,79.1768,324.1505,-0.00069193,-0.00010571,0,1 48481U 21040BF  21180.50001157 -.00010571  00000-0 -69193-3 0  9990,2 48481  53.0498 336.9326 0001460  79.1768 324.1505 15.06394143  9259,6925.367,95.593,548.243,546.22,548.6649131865829
1182195,48481,STARLINK-2706,2021-06-29 04:00:00.999936,15.06421935,0.0001489,53.0495,338.4293,75.301,319.3495,-0.0041917,-0.00062211,0,1 48481U 21040BF  21180.16667824 -.00062211  00000-0 -41917-2 0  9992,2 48481  53.0495 338.4293 0001489  75.3010 319.3495 15.06421935  3635,6925.281,95.591,548.178,546.115,547.6020438541267
1180527,48481,STARLINK-2706,2021-06-28 22:00:00.999936,15.06389352,0.0001575,53.0494,339.5532,69.5822,48.5579,0.0023388,0.00034717,0,1 48481U 21040BF  21179.91667824  .00034717  00000-0  23388-2 0  9993,2 48481  53.0494 339.5532 0001575  69.5822  48.5579 15.06389352  3645,6925.381,95.593,548.337,546.155,551.1945900899442
1179815,48481,STARLINK-2706,2021-06-28 20:00:01.224000,15.06390326,0.0001619,53.0497,339.9274,71.5196,314.4495,0.0018554,0.00027456,0,1 48481U 21040BF  21179.83334491  .00027456  00000-0  18554-2 0  9996,2 48481  53.0497 339.9274 0001619  71.5196 314.4495 15.06390326  9158,6925.378,95.593,548.364,546.122,546.9511466746505
1178792,48481,STARLINK-2706,2021-06-28 14:00:01.999872,15.06423352,0.0001591,53.0497,341.0485,77.502,32.0022,-0.0021436,-0.00032088,0,1 48481U 21040BF  21179.58335648 -.00032088  00000-0 -21436-2 0  9995,2 48481  53.0497 341.0485 0001591  77.5020  32.0022 15.06423352  3639,6925.277,95.591,548.244,546.04,551.8054924956305
1176680,48481,STARLINK-2706,2021-06-28 04:00:00.999936,15.06412423,0.0001563,53.0497,342.9189,74.6077,293.9814,-0.001673,-0.00025122,0,1 48481U 21040BF  21179.16667824 -.00025122  00000-0 -16730-2 0  9995,2 48481  53.0497 342.9189 0001563  74.6077 293.9814 15.06412423  9055,6925.31,95.591,548.258,546.093,546.9893398394214
1175801,48481,STARLINK-2706,2021-06-27 22:00:00.999936,15.06381349,0.0001613,53.0497,344.0427,68.9403,23.1442,0.0027904,0.00041506,0,1 48481U 21040BF  21178.91667824  .00041506  00000-0  27904-2 0  9994,2 48481  53.0497 344.0427 0001613  68.9403  23.1442 15.06381349  3605,6925.406,95.593,548.388,546.154,552.7800122439252
1173973,48481,STARLINK-2706,2021-06-27 14:00:01.224000,15.06418323,0.0001586,53.0501,345.538,76.1314,7.2555,-0.0020949,-0.00031364,0,1 48481U 21040BF  21178.58334491 -.00031364  00000-0 -20949-2 0  9993,2 48481  53.0501 345.5380 0001586  76.1314   7.2555 15.06418323  3652,6925.292,95.591,548.256,546.059,552.5012475368624
1171132,48481,STARLINK-2706,2021-06-26 22:00:00.999936,15.06373964,0.0001624,53.0492,348.5317,66.6558,359.3858,0.002799,0.00041627,0,1 48481U 21040BF  21177.91667824  .00041627  00000-0  27990-2 0  9992,2 48481  53.0492 348.5317 0001624  66.6558 359.3858 15.06373964  3659,6925.428,95.594,548.418,546.169,551.3054502490883
1170170,48481,STARLINK-2706,2021-06-26 20:00:01.999872,15.06387174,0.0001666,53.0497,348.9059,67.9569,265.9756,0.00070703,0.00010262,0,1 48481U 21040BF  21177.83335648  .00010262  00000-0  70703-3 0  9991,2 48481  53.0497 348.9059 0001666  67.9569 265.9756 15.06387174  8857,6925.388,95.593,548.407,546.099,553.1373664648963
1169242,48481,STARLINK-2706,2021-06-26 14:00:01.224000,15.06397156,0.0001487,53.0506,350.0301,61.5002,355.7555,-0.0002905,-4.605e-05,0,1 48481U 21040BF  21177.58334491 -.00004605  00000-0 -29050-3 0  9993,2 48481  53.0506 350.0301 0001487  61.5002 355.7555 15.06397156  3665,6925.357,95.592,548.252,546.192,550.2873109960645
1168225,48481,STARLINK-2706,2021-06-26 12:00:00.999648,15.06394858,0.0001505,53.0506,350.4036,65.2456,259.8421,7.988e-05,9.08e-06,0,1 48481U 21040BF  21177.50001157  .00000908  00000-0  79880-4 0  9992,2 48481  53.0506 350.4036 0001505  65.2456 259.8421 15.06394858  8802,6925.364,95.592,548.272,546.187,555.5807115751533
1167126,48481,STARLINK-2706,2021-06-26 04:00:00.999936,15.06617736,0.000156,53.0498,351.9061,60.7865,255.5089,-0.022901,-0.00328016,0,1 48481U 21040BF  21177.16667824 -.00328016  00000-0 -22901-1 0  9997,2 48481  53.0498 351.9061 0001560  60.7865 255.5089 15.06617736  8751,6924.681,95.578,547.627,545.466,557.4371618628144
1166486,48481,STARLINK-2706,2021-06-25 22:00:00.999936,15.07374819,0.000151,53.049,353.0403,51.9458,347.1776,-0.072707,-0.01031945,0,1 48481U 21040BF  21176.91667824 -.01031945  00000-0 -72707-1 0  9991,2 48481  53.0490 353.0403 0001510  51.9458 347.1776 15.07374819  3659,6922.362,95.53,545.273,543.182,544.9450210432449
1165468,48481,STARLINK-2706,2021-06-25 20:00:01.224000,15.07577385,0.0001497,53.0491,353.4144,59.3157,247.3109,-0.074792,-0.01064845,0,1 48481U 21040BF  21176.83334491 -.01064845  00000-0 -74792-1 0  9994,2 48481  53.0491 353.4144 0001497  59.3157 247.3109 15.07577385  8703,6921.742,95.517,544.644,542.571,557.2103440485621
1164588,48481,STARLINK-2706,2021-06-25 14:00:01.224000,15.08172216,0.0001388,53.0503,354.5417,58.4979,330.2935,-0.07657,-0.01104793,0,1 48481U 21040BF  21176.58334491 -.01104793  00000-0 -76570-1 0  9999,2 48481  53.0503 354.5417 0001388  58.4979 330.2935 15.08172216  3645,6919.922,95.48,542.748,540.827,541.6537147776635
1160956,48481,STARLINK-2706,2021-06-24 10:00:01.999584,15.10753403,0.0003902,53.0472,359.9032,323.4227,202.1028,0.22185,0.04180285,0,1 48481U 21040BF  21175.41668981  .04180285  00000-0  22185+0 0  9996,2 48481  53.0472 359.9032 0003902 323.4227 202.1028 15.10753403  8491,6912.038,95.317,536.6,531.206,536.5174856332219
1159545,48481,STARLINK-2706,2021-06-24 04:00:01.999584,15.11018474,0.0001584,53.0482,1.0292,17.1538,227.7231,-0.00088104,-0.00015154,0,1 48481U 21040BF  21175.16668981 -.00015154  00000-0 -88104-3 0  9995,2 48481  53.0482   1.0292 0001584  17.1538 227.7231 15.11018474  8459,6911.23,95.3,534.189,532.0,549.6646807541987
1158457,48481,STARLINK-2706,2021-06-23 22:00:01.999584,15.11921124,0.0001524,53.0486,2.1573,49.0848,274.505,-0.065867,-0.01058075,0,1 48481U 21040BF  21174.91668981 -.01058075  00000-0 -65867-1 0  9996,2 48481  53.0486   2.1573 0001524  49.0848 274.5050 15.11921124  2110,6908.479,95.243,531.396,529.291,538.8442582576142
1157086,48481,STARLINK-2706,2021-06-23 14:00:01.224000,15.12670855,0.0001524,53.0488,3.6596,50.8641,256.9058,-0.064527,-0.01058544,0,1 48481U 21040BF  21174.58334491 -.01058544  00000-0 -64527-1 0  9998,2 48481  53.0488   3.6596 0001524  50.8641 256.9058 15.12670855  2063,6906.196,95.196,529.113,527.008,541.2068766466433
1154689,48481,STARLINK-2706,2021-06-22 20:00:01.224000,15.1436008,0.0001705,53.0483,7.041,51.5552,127.4679,-0.061636,-0.01060407,0,1 48481U 21040BF  21173.83334491 -.01060407  00000-0 -61636-1 0  9994,2 48481  53.0483   7.0410 0001705  51.5552 127.4679 15.14360080  1946,6901.059,95.09,524.101,521.747,524.4321672763697
1153846,48481,STARLINK-2706,2021-06-22 14:00:01.224000,15.14924115,0.0001584,53.0486,8.1698,53.0639,202.0278,-0.060701,-0.01061116,0,1 48481U 21040BF  21173.58334491 -.01061116  00000-0 -60701-1 0  9996,2 48481  53.0486   8.1698 0001584  53.0639 202.0278 15.14924115  1903,6899.346,95.054,522.304,520.118,539.7528215017356
1152087,48481,STARLINK-2706,2021-06-22 04:00:00.999936,15.15864864,0.0001708,53.0484,10.0595,49.6539,91.0859,-0.0592,-0.01062916,0,1 48481U 21040BF  21173.16667824 -.01062916  00000-0 -59200-1 0  9990,2 48481  53.0484  10.0595 0001708  49.6539  91.0859 15.15864864  8157,6896.491,94.995,519.534,517.178,520.1432542265204
1151442,48481,STARLINK-2706,2021-06-21 16:00:01.999584,15.16986894,0.0001489,53.0485,12.3321,52.5121,237.2052,-0.05671,-0.01039375,0,1 48481U 21040BF  21172.66668981 -.01039375  00000-0 -56710-1 0  9995,2 48481  53.0485  12.3321 0001489  52.5121 237.2052 15.16986894  8075,6893.09,94.925,515.981,513.929,532.353762436997
1149784,48481,STARLINK-2706,2021-06-21 12:00:00.999648,15.17374685,0.0001647,53.0489,13.1169,48.9245,49.9063,-0.056824,-0.0106529,0,1 48481U 21040BF  21172.50001157 -.01065290  00000-0 -56824-1 0  9995,2 48481  53.0489  13.1169 0001647  48.9245  49.9063 15.17374685  1893,6891.916,94.901,514.916,512.646,519.3897939347929
1147362,48481,STARLINK-2706,2021-06-20 10:00:00.999936,15.19833825,0.0001249,53.0503,18.1111,85.1418,207.8425,-0.053073,-0.01055112,0,1 48481U 21040BF  21171.41667824 -.01055112  00000-0 -53073-1 0  9998,2 48481  53.0503  18.1111 0001249  85.1418 207.8425 15.19833825  1991,6884.479,94.747,507.204,505.485,523.3761322718361
